CUBEBUG-2 (LO-74)
1 39440U 13066AA  26203.83049192  .00002488  00000-0  23220-3 0  9999
2 39440  97.8916 152.9695 0055464 269.4199  90.0665 14.94003846682318
FUNCUBE-1 (AO-73)
1 39444U 13066AE  26203.64898489  .00007803  00000-0  47749-3 0  9991
2 39444  97.8301 175.8499 0038145  83.5370 277.0199 15.09895632685017
UWE-3
1 39446U 13066AG  26203.83887040  .00003075  00000-0  26485-3 0  9996
2 39446  97.8728 160.1630 0047823 198.4515 161.4974 14.97239464682910
UNISAT-6
1 40012U 14033C   26203.22773730  .00001765  00000-0  19329-3 0  9998
2 40012  97.7918 355.3341 0043707 314.1378  45.6247 14.88387173651372
DUCHIFAT-1
1 40021U 14033M   26203.61891863  .00168289  00000-0  12291-2 0  9994
2 40021  98.0416 267.9836 0003731 228.0656 132.0288 15.72730714661308
LILACSAT-2
1 40908U 15049K   26203.92644068  .00020993  00000-0  34264-3 0  9997
2 40908  97.4631 242.1478 0008636 119.0361 241.1758 15.52569387601292
CAS-2T & KS-1Q
1 41847U 16066G   26203.69976696  .00000560  00000-0  87292-4 0  9997
2 41847  98.3808 279.0296 0341836  22.0172 339.5310 14.44779233509929
FOX-1B (AO-91)
1 43017U 17073E   26203.59205853  .00007742  00000-0  33569-3 0  9992
2 43017  97.4661  70.0856 0148626 205.7617 153.6161 15.13130557470747
FUNCUBE-3 (EO-79)/QB50P1
1 40025U 14033R   26203.79923947  .00008602  00000-0  41700-3 0  9996
2 40025  98.0975 217.4558 0010565 102.9257 257.3156 15.18749882658434
FOX-1A (AO-85)
1 40967U 15058D   26203.63204535  .00003443  00000-0  30733-3 0  9999
2 40967  64.7740 168.8173 0133007  42.9921 318.1491 14.91124323118851
DIWATA-2B (PO-101)
1 43678U 18084H   26203.97945212  .00001920  00000-0  15706-3 0  9995
2 43678  98.1226  41.7571 0012358  60.2349 300.0101 15.00583877421585
ESHAIL-2
1 43700U 18090A   26203.86364413  .00000000  00000-0  00000-0 0  9990
2 43700   0.0162  44.9609 0002661 111.0623 121.3054  1.00273274 28031
ITASAT-1
1 43786U 18099AE  26203.12690036  .00006157  00000-0  29324-3 0  9997
2 43786  97.4010 253.9464 0011321 223.4985 136.5358 15.19439192418216
FOX-1CLIFF (AO-95)
1 43770U 18099N   26203.59331233  .00012172  00000-0  45608-3 0  9999
2 43770  97.4364 263.7217 0007912 210.5948 149.4830 15.27385023418628
JY1SAT (JO-97)
1 43803U 18099AX  26203.64208368  .00018922  00000-0  56386-3 0  9998
2 43803  97.4109 266.6215 0007329 136.1267 224.0559 15.34698158419062
UWE-4
1 43880U 18111E   26203.33377656  .00035708  00000-0  67878-3 0  9990
2 43880  97.5824 133.3991 0007416 169.0004 191.1409 15.48148910416217
CAS-6 (TO-108)
1 44881U 19093C   26203.92169269 -.00000052  00000-0  17389-6 0  9996
2 44881  97.7512 275.2802 0012886 335.7526  24.3082 14.86566146356729
DOSAAF-85 (RS-44)
1 44909U 19096E   26203.34271586  .00000010  00000-0 -98329-5 0  9998
2 44909  82.5245 316.3463 0218399  62.3623 299.9463 12.79748937306844
SALSAT (TUBSAT 22)
1 46495U 20068K   26203.46128258  .00007239  00000-0  24997-3 0  9998
2 46495  97.8868 208.6876 0009978 167.8214 192.3268 15.30243913320754
CAMSAT XW-3 (CAS-9)
1 50466U 21131B   26203.94393036  .00000236  00000-0  86397-4 0  9997
2 50466  98.4980 296.1410 0004075   9.9533 350.1736 14.41385847240263
ROBUSTA 1F (MTCUBE-2)
1 53109U 22080E   26203.66940058 -.00000003  00000-0  00000-0 0  9995
2 53109  70.1381 285.9076 0009327 282.2706  77.6909  6.42583354 94343
UMKA-1 (RS40S)
1 57172U 23091G   26203.88234927  .00005884  00000-0  26660-3 0  9991
2 57172  97.5030 262.4467 0012239   3.3236 356.8079 15.21181614169434
CUBESX-HSE-3 (RS42S)
1 57178U 23091N   26203.91001795  .00014707  00000-0  47729-3 0  9999
2 57178  97.5072 269.9655 0008961 332.4604  27.6161 15.32023403169897
MONITOR-3 (RS58S)
1 57180U 23091Q   26203.88440383  .00011568  00000-0  41928-3 0  9995
2 57180  97.5063 267.6047 0010210 341.4378  18.6487 15.28479681169741
MONITOR-4 (RS57S)
1 57182U 23091S   26203.92692542  .00012210  00000-0  44117-3 0  9996
2 57182  97.5057 267.6206 0010211 341.4648  18.6218 15.28568837169759
MONITOR-2 (RS39S)
1 57184U 23091U   26203.88341599  .00004633  00000-0  22310-3 0  9997
2 57184  97.5052 261.9381 0010625 357.6795   2.4388 15.19203036169372
SVYATOBOR-1 (RS60S)
1 57187U 23091X   26203.90644438  .00009881  00000-0  37351-3 0  9992
2 57187  97.5069 267.9305 0007977 335.6311  24.4549 15.27155425169764
VIZARD-METEO (RS38S)
1 57189U 23091Z   26203.89960042  .00019575  00000-0  54124-3 0  9992
2 57189  97.5072 274.1242 0005191 305.7013  54.3748 15.37054578170171
UTMN-2 (RS27S)
1 57203U 23091AP  26203.90841443  .00014399  00000-0  45595-3 0  9995
2 57203  97.5068 271.6411 0006099 318.5449  41.5330 15.32837529170014
POLYTECH UNIVERSE-3 (RS46S)
1 57191U 23091AB  26203.90571855  .00005558  00000-0  26493-3 0  9991
2 57191  97.5028 261.4643 0015302  11.7868 348.3722 15.19417385169373
